OBJECT_NAME,OBJECT_ID,EPOCH,MEAN_MOTION,ECCENTRICITY,INCLINATION,RA_OF_ASC_NODE,ARG_OF_PERICENTER,MEAN_ANOMALY,EPHEMERIS_TYPE,CLASSIFICATION_TYPE,NORAD_CAT_ID,ELEMENT_SET_NO,REV_AT_EPOCH,BSTAR,MEAN_MOTION_DOT,MEAN_MOTION_DDOT
INTELSAT 902 (IS-902),2001-039A,2026-06-25T12:21:38.337120,1.00271919,.0004225,6.1373,71.6819,22.8132,314.4640,0,U,26900,999,9077,0,-.279E-5,0
INTELSAT 904 (IS-904),2002-007A,2026-06-25T13:49:00.281280,1.00273321,.0006538,6.9409,69.0858,10.0558,10.3274,0,U,27380,999,5185,0,-.221E-5,0
DIRECTV 5 (TEMPO 1),2002-023A,2026-06-25T18:49:29.927424,1.00272965,.0003506,4.8997,75.2077,26.5739,344.4102,0,U,27426,999,8821,0,-.51E-6,0
INTELSAT 905 (IS-905),2002-027A,2026-06-25T18:47:34.262016,1.00272456,.0004163,6.7750,69.6987,26.1372,322.7654,0,U,27438,999,5144,0,.98E-6,0
GALAXY 3C (G-3C),2002-030A,2026-06-25T19:34:24.334752,1.00272558,.0001949,3.7549,77.8682,25.4399,9.4019,0,U,27445,999,4658,0,-.146E-5,0
INTELSAT 906 (IS-906),2002-041A,2026-06-25T19:44:51.972000,1.00271956,.0004231,5.8238,72.8153,6.4653,195.0332,0,U,27513,999,8711,0,.18E-6,0
GALAXY 13 (HORIZONS-1),2003-044A,2026-06-25T15:18:23.461920,1.00269256,.0001738,1.4404,83.7558,1.2101,268.4067,0,U,27954,999,4665,0,.142E-5,0
INTELSAT 10-02,2004-022A,2026-06-25T20:00:52.219008,1.00271080,.0000301,0.0269,284.7731,220.5072,67.9026,0,U,28358,999,8064,0,-.1E-7,0
DIRECTV 8,2005-019A,2026-06-25T15:27:22.601376,1.00271019,.0003217,0.0182,64.7513,33.6824,288.1407,0,U,28659,999,7715,0,.12E-6,0
GALAXY 28 (G-28),2005-022A,2026-06-25T09:02:54.265344,1.00271390,.0002307,3.3189,78.8326,13.5338,289.7814,0,U,28702,999,5205,0,-.193E-5,0
GALAXY 16 (G-16),2006-023A,2026-06-25T19:33:00.023040,1.00272155,.0002874,0.0422,133.1439,309.0187,26.0228,0,U,29236,999,7306,0,-.116E-5,0
DIRECTV 9S,2006-043A,2026-06-25T14:22:02.788032,1.00271786,.0005364,2.4426,80.8108,17.7338,289.4992,0,U,29494,999,5146,0,-.105E-5,0
GALAXY 17 (G-17),2007-016B,2026-06-25T12:11:39.293088,1.00271571,.000454,2.9931,79.8023,18.1719,273.5770,0,U,31307,999,6988,0,-.199E-5,0
INTELSAT 11 (IS-11),2007-044B,2026-06-25T16:26:33.803808,0.99047914,.0002963,3.5876,78.5732,84.2017,86.1516,0,U,32253,999,6853,0,.2E-7,0
HORIZONS-2,2007-063B,2026-06-25T12:14:53.983392,1.00271711,.0004136,2.6236,80.5312,5.0731,297.9685,0,U,32388,999,6789,0,-.245E-5,0
DIRECTV 11,2008-013A,2026-06-25T19:33:00.023040,1.00273137,.000012,0.0131,250.3796,233.1459,344.4850,0,U,32729,999,4568,0,-.115E-5,0
GALAXY 18 (G-18),2008-024A,2026-06-25T15:26:15.209376,1.00269373,.0003224,0.0241,7.4411,90.2307,284.6802,0,U,32951,999,4593,0,0,0
GALAXY 19 (G-19),2008-045A,2026-06-25T15:33:37.001952,1.00270843,.0002822,0.0443,260.7608,201.9710,307.4571,0,U,33376,999,6498,0,-.129E-5,0
FM-5,2009-034A,2026-06-25T19:38:17.752128,1.00274491,.0000984,0.0232,289.6770,43.9250,148.7582,0,U,35493,999,4673,0,-.19E-5,0
INTELSAT 14 (IS-14),2009-064A,2026-06-25T19:13:46.428384,1.00272870,.0002663,0.0173,11.4120,82.0860,63.8789,0,U,36097,999,6069,0,-.263E-5,0
INTELSAT 15 (IS-15),2009-067A,2026-06-25T18:07:56.229888,1.00271700,.0002499,0.0107,36.9940,60.9313,173.0992,0,U,36106,999,4131,0,-.175E-5,0
DIRECTV 12,2009-075A,2026-06-25T14:22:09.242976,1.00272814,.0000368,0.0446,181.6367,293.2482,271.6638,0,U,36131,999,4663,0,-.93E-6,0
INTELSAT 16 (IS-16),2010-006A,2026-06-25T12:14:16.541952,1.00272022,.0002304,0.0103,25.3538,81.9257,273.7319,0,U,36397,999,5973,0,-.235E-5,0
XM-5,2010-053A,2026-06-25T19:30:03.462912,1.00276600,.0002726,0.0634,271.8911,289.4626,249.9091,0,U,37185,999,5757,0,-.13E-6,0
INTELSAT 17 (IS-17),2010-065B,2026-06-25T19:45:29.411712,1.00271656,.0002451,0.0079,68.3601,26.4367,181.5299,0,U,37238,999,5333,0,.9E-7,0
INTELSAT 28 (IS-28),2011-016A,2026-06-25T19:17:31.069248,1.00271807,.0004005,1.8285,82.5260,11.0754,77.9832,0,U,37392,999,5337,0,-.216E-5,0
INTELSAT 18 (IS-18),2011-056A,2026-06-25T19:03:38.626848,1.00272789,.0002042,0.0167,293.8874,164.2041,281.7367,0,U,37834,999,5389,0,.63E-6,0
INTELSAT 22 (IS-22),2012-011A,2026-06-25T19:47:14.246016,1.00270637,.0001818,0.0347,51.6054,76.7668,154.5011,0,U,38098,999,727,0,0,0
INTELSAT 19 (IS-19),2012-030A,2026-06-25T19:27:38.691072,1.00271196,.0003304,0.0176,9.4438,90.8659,271.5512,0,U,38356,999,5053,0,-.46E-6,0
INTELSAT 20 (IS-20),2012-043A,2026-06-24T20:55:38.710848,1.00271269,.00023379,0.0375,69.0879,110.0778,116.2550,0,U,38740,999,5082,0,0,0
INTELSAT 21 (IS-21),2012-045A,2026-06-25T08:54:02.614176,1.00270899,.0001779,0.0215,65.9228,42.3683,240.7282,0,U,38749,999,5060,0,-.275E-5,0
