INTELSAT 902 (IS-902)   
1 26900U 01039A   26176.51502705 -.00000279  00000+0  00000+0 0  9994
2 26900   6.1373  71.6819 0004225  22.8132 314.4640  1.00271919 90777
INTELSAT 904 (IS-904)   
1 27380U 02007A   26176.57569770 -.00000221  00000+0  00000+0 0  9991
2 27380   6.9409  69.0858 0006538  10.0558  10.3274  1.00273321 51852
DIRECTV 5 (TEMPO 1)     
1 27426U 02023A   26176.78437416 -.00000051  00000+0  00000+0 0  9995
2 27426   4.8997  75.2077 0003506  26.5739 344.4102  1.00272965 88213
INTELSAT 905 (IS-905)   
1 27438U 02027A   26176.78303544  .00000098  00000+0  00000+0 0  9996
2 27438   6.7750  69.6987 0004163  26.1372 322.7654  1.00272456 51441
GALAXY 3C (G-3C)        
1 27445U 02030A   26176.81555943 -.00000146  00000+0  00000+0 0  9999
2 27445   3.7549  77.8682 0001949  25.4399   9.4019  1.00272558 46581
INTELSAT 906 (IS-906)   
1 27513U 02041A   26176.82282375  .00000018  00000+0  00000+0 0  9991
2 27513   5.8238  72.8153 0004231   6.4653 195.0332  1.00271956 87117
GALAXY 13 (HORIZONS-1)  
1 27954U 03044A   26176.63777155  .00000142  00000+0  00000+0 0  9996
2 27954   1.4404  83.7558 0001738   1.2101 268.4067  1.00269256 46657
INTELSAT 10-02          
1 28358U 04022A   26176.83393772 -.00000001  00000+0  00000+0 0  9998
2 28358   0.0269 284.7731 0000301 220.5072  67.9026  1.00271080 80646
DIRECTV 8               
1 28659U 05019A   26176.64401159  .00000012  00000+0  00000+0 0  9998
2 28659   0.0182  64.7513 0003217  33.6824 288.1407  1.00271019 77159
GALAXY 28 (G-28)        
1 28702U 05022A   26176.37701696 -.00000193  00000+0  00000+0 0  9991
2 28702   3.3189  78.8326 0002307  13.5338 289.7814  1.00271390 52058
GALAXY 16 (G-16)        
1 29236U 06023A   26176.81458360 -.00000116  00000+0  00000+0 0  9997
2 29236   0.0422 133.1439 0002874 309.0187  26.0228  1.00272155 73064
DIRECTV 9S              
1 29494U 06043A   26176.59864338 -.00000105  00000+0  00000+0 0  9994
2 29494   2.4426  80.8108 0005364  17.7338 289.4992  1.00271786 51461
GALAXY 17 (G-17)        
1 31307U 07016B   26176.50809367 -.00000199  00000+0  00000+0 0  9996
2 31307   2.9931  79.8023 0004540  18.1719 273.5770  1.00271571 69885
INTELSAT 11 (IS-11)     
1 32253U 07044B   26176.68511347  .00000002  00000+0  00000+0 0  9997
2 32253   3.5876  78.5732 0002963  84.2017  86.1516  0.99047914 68532
HORIZONS-2              
1 32388U 07063B   26176.51034703 -.00000245  00000+0  00000+0 0  9995
2 32388   2.6236  80.5312 0004136   5.0731 297.9685  1.00271711 67890
DIRECTV 11              
1 32729U 08013A   26176.81458360 -.00000115  00000+0  00000+0 0  9998
2 32729   0.0131 250.3796 0000120 233.1459 344.4850  1.00273137 45687
GALAXY 18 (G-18)        
1 32951U 08024A   26176.64323159  .00000000  00000+0  00000+0 0  9997
2 32951   0.0241   7.4411 0003224  90.2307 284.6802  1.00269373 45930
GALAXY 19 (G-19)        
1 33376U 08045A   26176.64834493 -.00000129  00000+0  00000+0 0  9993
2 33376   0.0443 260.7608 0002822 201.9710 307.4571  1.00270843 64987
FM-5                    
1 35493U 09034A   26176.81826102 -.00000190  00000+0  00000+0 0  9999
2 35493   0.0232 289.6770 0000984  43.9250 148.7582  1.00274491 46739
INTELSAT 14 (IS-14)     
1 36097U 09064A   26176.80123181 -.00000263  00000+0  00000+0 0  9990
2 36097   0.0173  11.4120 0002663  82.0860  63.8789  1.00272870 60697
INTELSAT 15 (IS-15)     
1 36106U 09067A   26176.75551192 -.00000175  00000+0  00000+0 0  9997
2 36106   0.0107  36.9940 0002499  60.9313 173.0992  1.00271700 41311
DIRECTV 12              
1 36131U 09075A   26176.59871809 -.00000093  00000+0  00000+0 0  9995
2 36131   0.0446 181.6367 0000368 293.2482 271.6638  1.00272814 46636
INTELSAT 16 (IS-16)     
1 36397U 10006A   26176.50991368 -.00000235  00000+0  00000+0 0  9997
2 36397   0.0103  25.3538 0002304  81.9257 273.7319  1.00272022 59733
XM-5                    
1 37185U 10053A   26176.81254008 -.00000013  00000+0  00000+0 0  9996
2 37185   0.0634 271.8911 0002726 289.4626 249.9091  1.00276600 57572
INTELSAT 17 (IS-17)     
1 37238U 10065B   26176.82325708  .00000009  00000+0  00000+0 0  9999
2 37238   0.0079  68.3601 0002451  26.4367 181.5299  1.00271656 53332
INTELSAT 28 (IS-28)     
1 37392U 11016A   26176.80383182 -.00000216  00000+0  00000+0 0  9996
2 37392   1.8285  82.5260 0004005  11.0754  77.9832  1.00271807 53370
INTELSAT 18 (IS-18)     
1 37834U 11056A   26176.79419707  .00000063  00000+0  00000+0 0  9991
2 37834   0.0167 293.8874 0002042 164.2041 281.7367  1.00272789 53893
INTELSAT 22 (IS-22)     
1 38098U 12011A   26176.82447044  .00000000  00000+0  00000+0 0  9996
2 38098   0.0347  51.6054 0001818  76.7668 154.5011  1.00270637  7272
INTELSAT 19 (IS-19)     
1 38356U 12030A   26176.81086448 -.00000046  00000+0  00000+0 0  9991
2 38356   0.0176   9.4438 0003304  90.8659 271.5512  1.00271196 50539
INTELSAT 20 (IS-20)     
1 38740U 12043A   26175.87197582  .00000000  00000+0  00000+0 0  9998
2 38740   0.0375  69.0879 0002337 110.0778 116.2550  1.00271269 50820
INTELSAT 21 (IS-21)     
1 38749U 12045A   26176.37086359 -.00000275  00000+0  00000+0 0  9999
2 38749   0.0215  65.9228 0001779  42.3683 240.7282  1.00270899 50605
